CCSDS_OMM_VERS = 2.0
CREATION_DATE  = 
ORIGINATOR     = 

OBJECT_NAME    = STARLINK-36762
OBJECT_ID      = 2026-034U
CENTER_NAME    = EARTH
REF_FRAME      = TEME
TIME_SYSTEM    = UTC
MEAN_ELEMENT_THEORY = SGP/SGP4

EPOCH          = 2026-03-14T17:05:55.883904
MEAN_MOTION    = 15.80975659
ECCENTRICITY   = .00016447
INCLINATION    = 53.1582
RA_OF_ASC_NODE = 186.0249
ARG_OF_PERICENTER = 46.5184
MEAN_ANOMALY   = 313.5976

EPHEMERIS_TYPE = 0
CLASSIFICATION_TYPE = U
NORAD_CAT_ID   = 67868
ELEMENT_SET_NO = 999
REV_AT_EPOCH   = 473
BSTAR          = .18915725E-2
MEAN_MOTION_DOT = .391931E-2
MEAN_MOTION_DDOT = 0

CCSDS_OMM_VERS = 2.0
CREATION_DATE  = 
ORIGINATOR     = 

OBJECT_NAME    = STARLINK-36779
OBJECT_ID      = 2026-034V
CENTER_NAME    = EARTH
REF_FRAME      = TEME
TIME_SYSTEM    = UTC
MEAN_ELEMENT_THEORY = SGP/SGP4

EPOCH          = 2026-03-14T14:02:47.089536
MEAN_MOTION    = 15.80980525
ECCENTRICITY   = .00012522
INCLINATION    = 53.1587
RA_OF_ASC_NODE = 186.6528
ARG_OF_PERICENTER = 74.7472
MEAN_ANOMALY   = 285.3689

EPHEMERIS_TYPE = 0
CLASSIFICATION_TYPE = U
NORAD_CAT_ID   = 67869
ELEMENT_SET_NO = 999
REV_AT_EPOCH   = 471
BSTAR          = .21124484E-2
MEAN_MOTION_DOT = .440388E-2
MEAN_MOTION_DDOT = 0

CCSDS_OMM_VERS = 2.0
CREATION_DATE  = 
ORIGINATOR     = 

OBJECT_NAME    = STARLINK-36770
OBJECT_ID      = 2026-034W
CENTER_NAME    = EARTH
REF_FRAME      = TEME
TIME_SYSTEM    = UTC
MEAN_ELEMENT_THEORY = SGP/SGP4

EPOCH          = 2026-03-14T17:02:41.594496
MEAN_MOTION    = 15.80972271
ECCENTRICITY   = .00019498
INCLINATION    = 53.1583
RA_OF_ASC_NODE = 186.0088
ARG_OF_PERICENTER = 94.7776
MEAN_ANOMALY   = 265.3470

EPHEMERIS_TYPE = 0
CLASSIFICATION_TYPE = U
NORAD_CAT_ID   = 67870
ELEMENT_SET_NO = 999
REV_AT_EPOCH   = 473
BSTAR          = .21520235E-2
MEAN_MOTION_DOT = .448915E-2
MEAN_MOTION_DDOT = 0

CCSDS_OMM_VERS = 2.0
CREATION_DATE  = 
ORIGINATOR     = 

OBJECT_NAME    = STARLINK-36769
OBJECT_ID      = 2026-034X
CENTER_NAME    = EARTH
REF_FRAME      = TEME
TIME_SYSTEM    = UTC
MEAN_ELEMENT_THEORY = SGP/SGP4

EPOCH          = 2026-03-14T17:03:46.404000
MEAN_MOTION    = 15.80925537
ECCENTRICITY   = .00017422
INCLINATION    = 53.1582
RA_OF_ASC_NODE = 186.0143
ARG_OF_PERICENTER = 76.1556
MEAN_ANOMALY   = 283.9660

EPHEMERIS_TYPE = 0
CLASSIFICATION_TYPE = U
NORAD_CAT_ID   = 67871
ELEMENT_SET_NO = 999
REV_AT_EPOCH   = 473
BSTAR          = .18680501E-2
MEAN_MOTION_DOT = .385881E-2
MEAN_MOTION_DDOT = 0

CCSDS_OMM_VERS = 2.0
CREATION_DATE  = 
ORIGINATOR     = 

OBJECT_NAME    = STARLINK-36786
OBJECT_ID      = 2026-034Y
CENTER_NAME    = EARTH
REF_FRAME      = TEME
TIME_SYSTEM    = UTC
MEAN_ELEMENT_THEORY = SGP/SGP4

EPOCH          = 2026-03-14T17:01:36.944832
MEAN_MOTION    = 15.81013178
ECCENTRICITY   = .00016842
INCLINATION    = 53.1581
RA_OF_ASC_NODE = 186.0044
ARG_OF_PERICENTER = 82.6154
MEAN_ANOMALY   = 277.5060

EPHEMERIS_TYPE = 0
CLASSIFICATION_TYPE = U
NORAD_CAT_ID   = 67872
ELEMENT_SET_NO = 999
REV_AT_EPOCH   = 473
BSTAR          = .15242473E-2
MEAN_MOTION_DOT = .313327E-2
MEAN_MOTION_DDOT = 0

CCSDS_OMM_VERS = 2.0
CREATION_DATE  = 
ORIGINATOR     = 

OBJECT_NAME    = STARLINK-36783
OBJECT_ID      = 2026-034Z
CENTER_NAME    = EARTH
REF_FRAME      = TEME
TIME_SYSTEM    = UTC
MEAN_ELEMENT_THEORY = SGP/SGP4

EPOCH          = 2026-03-14T17:00:31.873536
MEAN_MOTION    = 15.80990819
ECCENTRICITY   = .00018107
INCLINATION    = 53.1584
RA_OF_ASC_NODE = 185.9985
ARG_OF_PERICENTER = 84.9238
MEAN_ANOMALY   = 275.1991

EPHEMERIS_TYPE = 0
CLASSIFICATION_TYPE = U
NORAD_CAT_ID   = 67873
ELEMENT_SET_NO = 999
REV_AT_EPOCH   = 473
BSTAR          = .16930879E-2
MEAN_MOTION_DOT = .34922E-2
MEAN_MOTION_DDOT = 0

CCSDS_OMM_VERS = 2.0
CREATION_DATE  = 
ORIGINATOR     = 

OBJECT_NAME    = STARLINK-36730
OBJECT_ID      = 2026-034AA
CENTER_NAME    = EARTH
REF_FRAME      = TEME
TIME_SYSTEM    = UTC
MEAN_ELEMENT_THEORY = SGP/SGP4

EPOCH          = 2026-03-14T13:57:23.189760
MEAN_MOTION    = 15.80956050
ECCENTRICITY   = .00016504
INCLINATION    = 53.1583
RA_OF_ASC_NODE = 186.6279
ARG_OF_PERICENTER = 56.4226
MEAN_ANOMALY   = 303.6954

EPHEMERIS_TYPE = 0
CLASSIFICATION_TYPE = U
NORAD_CAT_ID   = 67874
ELEMENT_SET_NO = 999
REV_AT_EPOCH   = 471
BSTAR          = .19515559E-2
MEAN_MOTION_DOT = .404619E-2
MEAN_MOTION_DDOT = 0

CCSDS_OMM_VERS = 2.0
CREATION_DATE  = 
ORIGINATOR     = 

OBJECT_NAME    = STARLINK-36727
OBJECT_ID      = 2026-034AB
CENTER_NAME    = EARTH
REF_FRAME      = TEME
TIME_SYSTEM    = UTC
MEAN_ELEMENT_THEORY = SGP/SGP4

EPOCH          = 2026-03-14T16:58:22.452384
MEAN_MOTION    = 15.80965666
ECCENTRICITY   = .00018686
INCLINATION    = 53.1584
RA_OF_ASC_NODE = 185.9886
ARG_OF_PERICENTER = 73.0867
MEAN_ANOMALY   = 287.0360

EPHEMERIS_TYPE = 0
CLASSIFICATION_TYPE = U
NORAD_CAT_ID   = 67875
ELEMENT_SET_NO = 999
REV_AT_EPOCH   = 473
BSTAR          = .15992309E-2
MEAN_MOTION_DOT = .328646E-2
MEAN_MOTION_DDOT = 0

CCSDS_OMM_VERS = 2.0
CREATION_DATE  = 
ORIGINATOR     = 

OBJECT_NAME    = STARLINK-36743
OBJECT_ID      = 2026-034AC
CENTER_NAME    = EARTH
REF_FRAME      = TEME
TIME_SYSTEM    = UTC
MEAN_ELEMENT_THEORY = SGP/SGP4

EPOCH          = 2026-03-14T13:55:13.626048
MEAN_MOTION    = 15.80960490
ECCENTRICITY   = .00014655
INCLINATION    = 53.1588
RA_OF_ASC_NODE = 186.6173
ARG_OF_PERICENTER = 52.2717
MEAN_ANOMALY   = 307.8438

EPHEMERIS_TYPE = 0
CLASSIFICATION_TYPE = U
NORAD_CAT_ID   = 67876
ELEMENT_SET_NO = 999
REV_AT_EPOCH   = 471
BSTAR          = .22109526E-2
MEAN_MOTION_DOT = .461681E-2
MEAN_MOTION_DDOT = 0

CCSDS_OMM_VERS = 2.0
CREATION_DATE  = 
ORIGINATOR     = 

OBJECT_NAME    = STARLINK-36784
OBJECT_ID      = 2026-034AD
CENTER_NAME    = EARTH
REF_FRAME      = TEME
TIME_SYSTEM    = UTC
MEAN_ELEMENT_THEORY = SGP/SGP4

EPOCH          = 2026-03-14T16:56:13.016544
MEAN_MOTION    = 15.80973076
ECCENTRICITY   = .00015416
INCLINATION    = 53.1585
RA_OF_ASC_NODE = 185.9782
ARG_OF_PERICENTER = 91.0096
MEAN_ANOMALY   = 269.1103

EPHEMERIS_TYPE = 0
CLASSIFICATION_TYPE = U
NORAD_CAT_ID   = 67877
ELEMENT_SET_NO = 999
REV_AT_EPOCH   = 473
BSTAR          = .24433295E-2
MEAN_MOTION_DOT = .513711E-2
MEAN_MOTION_DDOT = 0

CCSDS_OMM_VERS = 2.0
CREATION_DATE  = 
ORIGINATOR     = 

OBJECT_NAME    = STARLINK-36689
OBJECT_ID      = 2026-034AE
CENTER_NAME    = EARTH
REF_FRAME      = TEME
TIME_SYSTEM    = UTC
MEAN_ELEMENT_THEORY = SGP/SGP4

EPOCH          = 2026-03-14T16:55:07.826880
MEAN_MOTION    = 15.81003910
ECCENTRICITY   = .00014935
INCLINATION    = 53.1583
RA_OF_ASC_NODE = 185.9731
ARG_OF_PERICENTER = 103.8182
MEAN_ANOMALY   = 256.3007

EPHEMERIS_TYPE = 0
CLASSIFICATION_TYPE = U
NORAD_CAT_ID   = 67878
ELEMENT_SET_NO = 999
REV_AT_EPOCH   = 473
BSTAR          = .1394658E-2
MEAN_MOTION_DOT = .285576E-2
MEAN_MOTION_DDOT = 0

CCSDS_OMM_VERS = 2.0
CREATION_DATE  = 
ORIGINATOR     = 

OBJECT_NAME    = STARLINK-36818
OBJECT_ID      = 2026-035A
CENTER_NAME    = EARTH
REF_FRAME      = TEME
TIME_SYSTEM    = UTC
MEAN_ELEMENT_THEORY = SGP/SGP4

EPOCH          = 2026-03-14T22:00:01.999584
MEAN_MOTION    = 15.75200686
ECCENTRICITY   = .00010511
INCLINATION    = 97.2858
RA_OF_ASC_NODE = 6.5528
ARG_OF_PERICENTER = 84.3508
MEAN_ANOMALY   = 326.4083

EPHEMERIS_TYPE = 0
CLASSIFICATION_TYPE = U
NORAD_CAT_ID   = 67879
ELEMENT_SET_NO = 999
REV_AT_EPOCH   = 459
BSTAR          = -.29008984E-3
MEAN_MOTION_DOT = -.43199E-3
MEAN_MOTION_DDOT = 0

