STARLINK-36762          
1 67868U 26034U   26073.71245236  .00391931  00000+0  18916-2 0  9990
2 67868  53.1582 186.0249 0001644  46.5184 313.5976 15.80975659  4737
STARLINK-36779          
1 67869U 26034V   26073.58526724  .00440388  00000+0  21124-2 0  9996
2 67869  53.1587 186.6528 0001252  74.7472 285.3689 15.80980525  4710
STARLINK-36770          
1 67870U 26034W   26073.71020364  .00448915  00000+0  21520-2 0  9996
2 67870  53.1583 186.0088 0001949  94.7776 265.3470 15.80972271  4732
STARLINK-36769          
1 67871U 26034X   26073.71095375  .00385881  00000+0  18681-2 0  9997
2 67871  53.1582 186.0143 0001742  76.1556 283.9660 15.80925537  4735
STARLINK-36786          
1 67872U 26034Y   26073.70945538  .00313327  00000+0  15242-2 0  9998
2 67872  53.1581 186.0044 0001684  82.6154 277.5060 15.81013178  4739
STARLINK-36783          
1 67873U 26034Z   26073.70870224  .00349220  00000+0  16931-2 0  9995
2 67873  53.1584 185.9985 0001810  84.9238 275.1991 15.80990819  4736
STARLINK-36730          
1 67874U 26034AA  26073.58151840  .00404619  00000+0  19516-2 0  9994
2 67874  53.1583 186.6279 0001650  56.4226 303.6954 15.80956050  4716
STARLINK-36727          
1 67875U 26034AB  26073.70720431  .00328646  00000+0  15992-2 0  9996
2 67875  53.1584 185.9886 0001868  73.0867 287.0360 15.80965666  4732
STARLINK-36743          
1 67876U 26034AC  26073.58001882  .00461681  00000+0  22110-2 0  9992
2 67876  53.1588 186.6173 0001465  52.2717 307.8438 15.80960490  4715
STARLINK-36784          
1 67877U 26034AD  26073.70570621  .00513711  00000+0  24433-2 0  9991
2 67877  53.1585 185.9782 0001541  91.0096 269.1103 15.80973076  4732
STARLINK-36689          
1 67878U 26034AE  26073.70495170  .00285576  00000+0  13947-2 0  9990
2 67878  53.1583 185.9731 0001493 103.8182 256.3007 15.81003910  4732
STARLINK-36818          
1 67879U 26035A   26073.91668981 -.00043199  00000+0 -29009-3 0  9999
2 67879  97.2858   6.5528 0001051  84.3508 326.4083 15.75200686  4593
